start=new Date('2022-10-18T00:00:00.000Z').valueOf();
sats=[{"NORAD_CAT_ID":"48567","MEAN_MOTION_DDOT":"0.0000000000000","PERIAPSIS":"545.909","OBJECT_ID":"2021-041Q","REF_FRAME":"TEME","GP_ID":"215448934","TLE_LINE2":"2 48567  53.0549 303.3846 0001907  45.9889 314.1257 15.06394799 78321","MEAN_ANOMALY":"314.1257","PERIOD":"95.592","APOAPSIS":"548.550","MEAN_MOTION":"15.06394799","RCS_SIZE":"LARGE","MEAN_ELEMENT_THEORY":"SGP4","LAUNCH_DATE":"2021-05-15","CLASSIFICATION_TYPE":"U","OBJECT_TYPE":"PAYLOAD","REV_AT_EPOCH":"7832","OBJECT_NAME":"STARLINK-2215","EPHEMERIS_TYPE":"0","FILE":"3620294","CENTER_NAME":"EARTH","TIME_SYSTEM":"UTC","MEAN_MOTION_DOT":"0.00000396","SITE":"AFETR","RA_OF_ASC_NODE":"303.3846","SEMIMAJOR_AXIS":"6925.364","DECAY_DATE":null,"ECCENTRICITY":"0.00019070","INCLINATION":"53.0549","EPOCH":"2022-10-17T18:19:29.492256","ELEMENT_SET_NO":"999","ARG_OF_PERICENTER":"45.9889","BSTAR":"0.00004550000000","TLE_LINE1":"1 48567U 21041Q   22290.76353579  .00000396  00000-0  45500-4 0  9994","COUNTRY_CODE":"US"},{"OBJECT_TYPE":"PAYLOAD","CLASSIFICATION_TYPE":"U","OBJECT_NAME":"STARLINK-2217","REV_AT_EPOCH":"7881","DECAY_DATE":null,"SEMIMAJOR_AXIS":"6925.355","RA_OF_ASC_NODE":"294.8097","SITE":"AFETR","MEAN_MOTION_DOT":"0.00000511","EPHEMERIS_TYPE":"0","FILE":"3619892","TIME_SYSTEM":"UTC","CENTER_NAME":"EARTH","COUNTRY_CODE":"US","TLE_LINE1":"1 48568U 21041R   22290.44377903  .00000511  00000-0  53177-4 0  9995","BSTAR":"0.00005317700000","ARG_OF_PERICENTER":"69.8693","EPOCH":"2022-10-17T10:39:02.508192","ECCENTRICITY":"0.00016890","INCLINATION":"53.0558","ELEMENT_SET_NO":"999","PERIAPSIS":"546.051","MEAN_MOTION_DDOT":"0.0000000000000","NORAD_CAT_ID":"48568","MEAN_ANOMALY":"290.2477","TLE_LINE2":"2 48568  53.0558 294.8097 0001689  69.8693 290.2477 15.06397811 78819","GP_ID":"215418841","REF_FRAME":"TEME","OBJECT_ID":"2021-041R","MEAN_MOTION":"15.06397811","APOAPSIS":"548.390","PERIOD":"95.592","LAUNCH_DATE":"2021-05-15","MEAN_ELEMENT_THEORY":"SGP4","RCS_SIZE":"LARGE"},{"DECAY_DATE":null,"SEMIMAJOR_AXIS":"6925.359","RA_OF_ASC_NODE":"293.4983","SITE":"AFETR","MEAN_MOTION_DOT":"0.00000436","FILE":"3620294","EPHEMERIS_TYPE":"0","TIME_SYSTEM":"UTC","CENTER_NAME":"EARTH","TLE_LINE1":"1 48569U 21041S   22290.73496913  .00000436  00000-0  48189-4 0  9994","COUNTRY_CODE":"US","BSTAR":"0.00004818900000","ARG_OF_PERICENTER":"41.5267","EPOCH":"2022-10-17T17:38:21.332832","ELEMENT_SET_NO":"999","INCLINATION":"53.0551","ECCENTRICITY":"0.00018110","OBJECT_TYPE":"PAYLOAD","CLASSIFICATION_TYPE":"U","OBJECT_NAME":"STARLINK-2219","REV_AT_EPOCH":"7846","MEAN_MOTION":"15.06396504","APOAPSIS":"548.478","PERIOD":"95.592","LAUNCH_DATE":"2021-05-15","MEAN_ELEMENT_THEORY":"SGP4","RCS_SIZE":"LARGE","PERIAPSIS":"545.970","MEAN_MOTION_DDOT":"0.0000000000000","NORAD_CAT_ID":"48569","MEAN_ANOMALY":"318.5860","TLE_LINE2":"2 48569  53.0551 293.4983 0001811  41.5267 318.5860 15.06396504 78462","GP_ID":"215447432","REF_FRAME":"TEME","OBJECT_ID":"2021-041S"},{"OBJECT_TYPE":"PAYLOAD","CLASSIFICATION_TYPE":"U","OBJECT_NAME":"STARLINK-2220","REV_AT_EPOCH":"7828","SEMIMAJOR_AXIS":"6925.351","RA_OF_ASC_NODE":"304.4619","DECAY_DATE":null,"TIME_SYSTEM":"UTC","FILE":"3620294","CENTER_NAME":"EARTH","EPHEMERIS_TYPE":"0","SITE":"AFETR","MEAN_MOTION_DOT":"-0.00000405","COUNTRY_CODE":"US","TLE_LINE1":"1 48570U 21041T   22290.52395078 -.00000405  00000-0 -82904-5 0  9995","BSTAR":"-0.00000829040000","ARG_OF_PERICENTER":"46.8767","ECCENTRICITY":"0.00019270","INCLINATION":"53.0549","ELEMENT_SET_NO":"999","EPOCH":"2022-10-17T12:34:29.347392","PERIAPSIS":"545.882","MEAN_MOTION_DDOT":"0.0000000000000","NORAD_CAT_ID":"48570","TLE_LINE2":"2 48570  53.0549 304.4619 0001927  46.8767 313.2383 15.06399135 78286","GP_ID":"215447682","MEAN_ANOMALY":"313.2383","REF_FRAME":"TEME","OBJECT_ID":"2021-041T","MEAN_MOTION":"15.06399135","APOAPSIS":"548.551","PERIOD":"95.592","LAUNCH_DATE":"2021-05-15","MEAN_ELEMENT_THEORY":"SGP4","RCS_SIZE":"LARGE"},{"MEAN_MOTION":"15.06407221","APOAPSIS":"548.149","PERIOD":"95.592","LAUNCH_DATE":"2021-05-15","MEAN_ELEMENT_THEORY":"SGP4","RCS_SIZE":"LARGE","PERIAPSIS":"546.234","NORAD_CAT_ID":"48571","MEAN_MOTION_DDOT":"0.0000000000000","MEAN_ANOMALY":"311.0032","TLE_LINE2":"2 48571  53.0558 303.5365 0001383  49.1077 311.0032 15.06407221 78329","GP_ID":"215448434","REF_FRAME":"TEME","OBJECT_ID":"2021-041U","DECAY_DATE":null,"SEMIMAJOR_AXIS":"6925.326","RA_OF_ASC_NODE":"303.5365","MEAN_MOTION_DOT":"0.00004209","SITE":"AFETR","EPHEMERIS_TYPE":"0","FILE":"3620294","TIME_SYSTEM":"UTC","CENTER_NAME":"EARTH","COUNTRY_CODE":"US","TLE_LINE1":"1 48571U 21041U   22290.73034964  .00004209  00000-0  30120-3 0  9998","BSTAR":"0.00030120000000","ARG_OF_PERICENTER":"49.1077","EPOCH":"2022-10-17T17:31:42.208896","ECCENTRICITY":"0.00013830","ELEMENT_SET_NO":"999","INCLINATION":"53.0558","OBJECT_TYPE":"PAYLOAD","CLASSIFICATION_TYPE":"U","OBJECT_NAME":"STARLINK-2221","REV_AT_EPOCH":"7832"},{"PERIAPSIS":"546.007","NORAD_CAT_ID":"48572","MEAN_MOTION_DDOT":"0.0000000000000","MEAN_ANOMALY":"320.8951","GP_ID":"215448671","TLE_LINE2":"2 48572  53.0544 304.4344 0001740  39.2163 320.8951 15.06400511 78294","OBJECT_ID":"2021-041V","REF_FRAME":"TEME","APOAPSIS":"548.417","MEAN_MOTION":"15.06400511","PERIOD":"95.592","LAUNCH_DATE":"2021-05-15","RCS_SIZE":"LARGE","MEAN_ELEMENT_THEORY":"SGP4","OBJECT_TYPE":"PAYLOAD","CLASSIFICATION_TYPE":"U","OBJECT_NAME":"STARLINK-2222","REV_AT_EPOCH":"7829","DECAY_DATE":null,"RA_OF_ASC_NODE":"304.4344","SEMIMAJOR_AXIS":"6925.347","MEAN_MOTION_DOT":"-0.00001160","SITE":"AFETR","TIME_SYSTEM":"UTC","FILE":"3620294","EPHEMERIS_TYPE":"0","CENTER_NAME":"EARTH","BSTAR":"-0.00005898200000","TLE_LINE1":"1 48572U 21041V   22290.52762650 -.00001160  00000-0 -58982-4 0  9998","COUNTRY_CODE":"US","ECCENTRICITY":"0.00017400","EPOCH":"2022-10-17T12:39:46.929600","INCLINATION":"53.0544","ELEMENT_SET_NO":"999","ARG_OF_PERICENTER":"39.2163"},{"LAUNCH_DATE":"2021-05-15","RCS_SIZE":"LARGE","MEAN_ELEMENT_THEORY":"SGP4","APOAPSIS":"548.687","MEAN_MOTION":"15.06398166","PERIOD":"95.592","GP_ID":"215373729","TLE_LINE2":"2 48573  53.0551 294.8192 0002119  47.1615 312.9552 15.06398166 78861","MEAN_ANOMALY":"312.9552","OBJECT_ID":"2021-041W","REF_FRAME":"TEME","PERIAPSIS":"545.752","NORAD_CAT_ID":"48573","MEAN_MOTION_DDOT":"0.0000000000000","BSTAR":"0.00002354300000","COUNTRY_CODE":"US","TLE_LINE1":"1 48573U 21041W   22290.44009416  .00000069  00000-0  23543-4 0  9994","EPOCH":"2022-10-17T10:33:44.135424","ECCENTRICITY":"0.00021190","INCLINATION":"53.0551","ELEMENT_SET_NO":"999","ARG_OF_PERICENTER":"47.1615","RA_OF_ASC_NODE":"294.8192","SEMIMAJOR_AXIS":"6925.354","DECAY_DATE":null,"CENTER_NAME":"EARTH","FILE":"3619069","EPHEMERIS_TYPE":"0","TIME_SYSTEM":"UTC","SITE":"AFETR","MEAN_MOTION_DOT":"0.00000069","OBJECT_NAME":"STARLINK-2224","REV_AT_EPOCH":"7886","OBJECT_TYPE":"PAYLOAD","CLASSIFICATION_TYPE":"U"},{"MEAN_ELEMENT_THEORY":"SGP4","RCS_SIZE":"LARGE","LAUNCH_DATE":"2021-05-15","PERIOD":"95.592","MEAN_MOTION":"15.06402337","APOAPSIS":"548.511","REF_FRAME":"TEME","OBJECT_ID":"2021-041X","MEAN_ANOMALY":"308.6102","TLE_LINE2":"2 48574  53.0549 265.3500 0001884  51.5056 308.6102 15.06402337 78826","GP_ID":"215405392","NORAD_CAT_ID":"48574","MEAN_MOTION_DDOT":"0.0000000000000","PERIAPSIS":"545.902","ARG_OF_PERICENTER":"51.5056","ECCENTRICITY":"0.00018840","INCLINATION":"53.0549","EPOCH":"2022-10-17T08:14:24.480096","ELEMENT_SET_NO":"999","COUNTRY_CODE":"US","TLE_LINE1":"1 48574U 21041X   22290.34333889 -.00000743  00000-0 -30997-4 0  9990","BSTAR":"-0.00003099700000","SITE":"AFETR","MEAN_MOTION_DOT":"-0.00000743","FILE":"3619530","CENTER_NAME":"EARTH","EPHEMERIS_TYPE":"0","TIME_SYSTEM":"UTC","DECAY_DATE":null,"SEMIMAJOR_AXIS":"6925.341","RA_OF_ASC_NODE":"265.3500","REV_AT_EPOCH":"7882","OBJECT_NAME":"STARLINK-2225","CLASSIFICATION_TYPE":"U","OBJECT_TYPE":"PAYLOAD"},{"MEAN_MOTION_DDOT":"0.0000000000000","NORAD_CAT_ID":"48575","PERIAPSIS":"546.273","OBJECT_ID":"2021-041Y","REF_FRAME":"TEME","GP_ID":"215448935","TLE_LINE2":"2 48575  53.0536 254.3075 0001331  75.9418 284.1718 15.06406056 79012","MEAN_ANOMALY":"284.1718","PERIOD":"95.592","APOAPSIS":"548.117","MEAN_MOTION":"15.06406056","RCS_SIZE":"LARGE","MEAN_ELEMENT_THEORY":"SGP4","LAUNCH_DATE":"2021-05-15","CLASSIFICATION_TYPE":"U","OBJECT_TYPE":"PAYLOAD","REV_AT_EPOCH":"7901","OBJECT_NAME":"STARLINK-2227","CENTER_NAME":"EARTH","FILE":"3620294","TIME_SYSTEM":"UTC","EPHEMERIS_TYPE":"0","SITE":"AFETR","MEAN_MOTION_DOT":"-0.00002710","RA_OF_ASC_NODE":"254.3075","SEMIMAJOR_AXIS":"6925.330","DECAY_DATE":null,"EPOCH":"2022-10-17T14:59:10.181760","ECCENTRICITY":"0.00013310","ELEMENT_SET_NO":"999","INCLINATION":"53.0536","ARG_OF_PERICENTER":"75.9418","BSTAR":"-0.00016306000000","TLE_LINE1":"1 48575U 21041Y   22290.62442340 -.00002710  00000-0 -16306-3 0  9998","COUNTRY_CODE":"US"},{"REV_AT_EPOCH":"7921","OBJECT_NAME":"STARLINK-2228","CLASSIFICATION_TYPE":"U","OBJECT_TYPE":"PAYLOAD","ARG_OF_PERICENTER":"40.8699","INCLINATION":"53.0573","EPOCH":"2022-10-17T08:37:37.533216","ECCENTRICITY":"0.00020210","ELEMENT_SET_NO":"999","TLE_LINE1":"1 48576U 21041Z   22290.35946219  .00000246  00000-0  35451-4 0  9996","COUNTRY_CODE":"US","BSTAR":"0.00003545100000","MEAN_MOTION_DOT":"0.00000246","SITE":"AFETR","FILE":"3619892","CENTER_NAME":"EARTH","EPHEMERIS_TYPE":"0","TIME_SYSTEM":"UTC","DECAY_DATE":null,"SEMIMAJOR_AXIS":"6925.331","RA_OF_ASC_NODE":"270.1949","REF_FRAME":"TEME","OBJECT_ID":"2021-041Z","MEAN_ANOMALY":"319.2441","TLE_LINE2":"2 48576  53.0573 270.1949 0002021  40.8699 319.2441 15.06405819 79210","GP_ID":"215418846","MEAN_MOTION_DDOT":"0.0000000000000","NORAD_CAT_ID":"48576","PERIAPSIS":"545.796","MEAN_ELEMENT_THEORY":"SGP4","RCS_SIZE":"LARGE","LAUNCH_DATE":"2021-05-15","PERIOD":"95.592","MEAN_MOTION":"15.06405819","APOAPSIS":"548.595"}];
